PELICAN-1               
1 58296U 23174AS  26187.46364315  .00008955  00000+0  67700-4 0  9993
2 58296  97.3997 289.0208 0003878 170.3492 189.7847 15.72681461149196
PELICAN-2               
1 62631U 25009Y   26187.20562822  .00000058  00000+0  33922-5 0  9991
2 62631  97.2276 277.8767 0002189 130.3351 229.8087 15.40652499 82486
PELICAN-3               
1 65315U 25188A   26187.72486410  .00006403  00000+0  15759-3 0  9992
2 65315  97.1977 263.5832 0001656 106.3145 253.8284 15.40948044 48327
PELICAN-4               
1 65316U 25188B   26187.67727808  .00006711  00000+0  16525-3 0  9990
2 65316  97.1992 263.6911 0000847  99.4399 260.6944 15.40914436 48314
PELICAN-5               
1 66667U 25276B   26187.68389532  .00004569  00000+0  15201-3 0  9996
2 66667  97.4125 262.6453 0002566 352.4165   7.7037 15.31662617 33507
PELICAN-6               
1 66703U 25276AP  26187.67893627  .00040391  00000+0  13424-2 0  9998
2 66703  97.3797 262.7050 0002147  54.6638 305.4804 15.31071477 33516
PELICAN-7               
1 69017U 26100AP  26187.26197403  .00003750  00000+0  16073-3 0  9992
2 69017  97.3973  84.8443 0002995 124.7142 235.4377 15.23361552  9711
PELICAN-9               
1 69019U 26100AR  26187.75613367  .00001971  00000+0  90218-4 0  9997
2 69019  97.3812  85.1924 0002822   7.8958 352.2322 15.21661649  9781
