{"fetched_at":"2026-07-07T07:58:12.386Z","source":"https://celestrak.org/NORAD/elements/gp.php?GROUP=planet&FORMAT=JSON","constellation":"pelican","records":[{"OBJECT_NAME":"PELICAN-1","OBJECT_ID":"2023-174AS","EPOCH":"2026-07-06T11:07:38.768160","CLASSIFICATION_TYPE":"U","MEAN_MOTION":15.72681461,"ECCENTRICITY":0.0003878,"INCLINATION":97.3997,"RA_OF_ASC_NODE":289.0208,"ARG_OF_PERICENTER":170.3492,"MEAN_ANOMALY":189.7847,"EPHEMERIS_TYPE":0,"NORAD_CAT_ID":58296,"ELEMENT_SET_NO":999,"REV_AT_EPOCH":14919,"BSTAR":0.0000677,"MEAN_MOTION_DOT":0.00008955,"MEAN_MOTION_DDOT":0},{"OBJECT_NAME":"PELICAN-2","OBJECT_ID":"2025-009Y","EPOCH":"2026-07-06T04:56:06.278208","CLASSIFICATION_TYPE":"U","MEAN_MOTION":15.40652499,"ECCENTRICITY":0.00021898,"INCLINATION":97.2276,"RA_OF_ASC_NODE":277.8767,"ARG_OF_PERICENTER":130.3351,"MEAN_ANOMALY":229.8087,"EPHEMERIS_TYPE":0,"NORAD_CAT_ID":62631,"ELEMENT_SET_NO":999,"REV_AT_EPOCH":8248,"BSTAR":0.000003392175,"MEAN_MOTION_DOT":5.8e-7,"MEAN_MOTION_DDOT":0},{"OBJECT_NAME":"PELICAN-3","OBJECT_ID":"2025-188A","EPOCH":"2026-07-06T17:23:48.258240","CLASSIFICATION_TYPE":"U","MEAN_MOTION":15.40948044,"ECCENTRICITY":0.0001656,"INCLINATION":97.1977,"RA_OF_ASC_NODE":263.5832,"ARG_OF_PERICENTER":106.3145,"MEAN_ANOMALY":253.8284,"EPHEMERIS_TYPE":0,"NORAD_CAT_ID":65315,"ELEMENT_SET_NO":999,"REV_AT_EPOCH":4832,"BSTAR":0.00015759,"MEAN_MOTION_DOT":0.00006403,"MEAN_MOTION_DDOT":0},{"OBJECT_NAME":"PELICAN-4","OBJECT_ID":"2025-188B","EPOCH":"2026-07-06T16:15:16.826112","CLASSIFICATION_TYPE":"U","MEAN_MOTION":15.40914436,"ECCENTRICITY":0.0000847,"INCLINATION":97.1992,"RA_OF_ASC_NODE":263.6911,"ARG_OF_PERICENTER":99.4399,"MEAN_ANOMALY":260.6944,"EPHEMERIS_TYPE":0,"NORAD_CAT_ID":65316,"ELEMENT_SET_NO":999,"REV_AT_EPOCH":4831,"BSTAR":0.00016525,"MEAN_MOTION_DOT":0.00006711,"MEAN_MOTION_DDOT":0},{"OBJECT_NAME":"PELICAN-5","OBJECT_ID":"2025-276B","EPOCH":"2026-07-06T16:24:48.555648","CLASSIFICATION_TYPE":"U","MEAN_MOTION":15.31662617,"ECCENTRICITY":0.0002566,"INCLINATION":97.4125,"RA_OF_ASC_NODE":262.6453,"ARG_OF_PERICENTER":352.4165,"MEAN_ANOMALY":7.7037,"EPHEMERIS_TYPE":0,"NORAD_CAT_ID":66667,"ELEMENT_SET_NO":999,"REV_AT_EPOCH":3350,"BSTAR":0.00015201,"MEAN_MOTION_DOT":0.00004569,"MEAN_MOTION_DDOT":0},{"OBJECT_NAME":"PELICAN-6","OBJECT_ID":"2025-276AP","EPOCH":"2026-07-06T16:17:40.093728","CLASSIFICATION_TYPE":"U","MEAN_MOTION":15.31071477,"ECCENTRICITY":0.0002147,"INCLINATION":97.3797,"RA_OF_ASC_NODE":262.705,"ARG_OF_PERICENTER":54.6638,"MEAN_ANOMALY":305.4804,"EPHEMERIS_TYPE":0,"NORAD_CAT_ID":66703,"ELEMENT_SET_NO":999,"REV_AT_EPOCH":3351,"BSTAR":0.0013424,"MEAN_MOTION_DOT":0.00040391,"MEAN_MOTION_DDOT":0},{"OBJECT_NAME":"PELICAN-7","OBJECT_ID":"2026-100AP","EPOCH":"2026-07-06T06:17:14.556192","CLASSIFICATION_TYPE":"U","MEAN_MOTION":15.23361552,"ECCENTRICITY":0.0002995,"INCLINATION":97.3973,"RA_OF_ASC_NODE":84.8443,"ARG_OF_PERICENTER":124.7142,"MEAN_ANOMALY":235.4377,"EPHEMERIS_TYPE":0,"NORAD_CAT_ID":69017,"ELEMENT_SET_NO":999,"REV_AT_EPOCH":971,"BSTAR":0.00016073,"MEAN_MOTION_DOT":0.0000375,"MEAN_MOTION_DDOT":0},{"OBJECT_NAME":"PELICAN-9","OBJECT_ID":"2026-100AR","EPOCH":"2026-07-06T18:08:49.949088","CLASSIFICATION_TYPE":"U","MEAN_MOTION":15.21661649,"ECCENTRICITY":0.0002822,"INCLINATION":97.3812,"RA_OF_ASC_NODE":85.1924,"ARG_OF_PERICENTER":7.8958,"MEAN_ANOMALY":352.2322,"EPHEMERIS_TYPE":0,"NORAD_CAT_ID":69019,"ELEMENT_SET_NO":999,"REV_AT_EPOCH":978,"BSTAR":0.000090218,"MEAN_MOTION_DOT":0.00001971,"MEAN_MOTION_DDOT":0}]}
